[{"OBJECT_NAME":"OBJECT B","OBJECT_ID":"2022-023B","EPOCH":"2026-03-09T22:47:53.401632","MEAN_MOTION":15.18262382,"ECCENTRICITY":0.00937159,"INCLINATION":63.476,"RA_OF_ASC_NODE":246.6999,"ARG_OF_PERICENTER":346.6129,"MEAN_ANOMALY":13.2499,"EPHEMERIS_TYPE":0,"CLASSIFICATION_TYPE":"U","NORAD_CAT_ID":51947,"ELEMENT_SET_NO":999,"REV_AT_EPOCH":22265,"BSTAR":0.00086643699,"MEAN_MOTION_DOT":0.00019848,"MEAN_MOTION_DDOT":0},{"OBJECT_NAME":"STARLINK-35522","OBJECT_ID":"2025-253Y","EPOCH":"2026-03-09T10:25:32.642976","MEAN_MOTION":15.27603366,"ECCENTRICITY":0.0002989,"INCLINATION":42.9998,"RA_OF_ASC_NODE":214.1001,"ARG_OF_PERICENTER":293.4292,"MEAN_ANOMALY":66.6246,"EPHEMERIS_TYPE":0,"CLASSIFICATION_TYPE":"U","NORAD_CAT_ID":66341,"ELEMENT_SET_NO":999,"REV_AT_EPOCH":2020,"BSTAR":0.0013462243,"MEAN_MOTION_DOT":0.00036998,"MEAN_MOTION_DDOT":0}]
